{
  "type": "FeatureCollection",
  "features": [
    {
      "type": "Feature",
      "properties": {
        "norad_id": 46435,
        "name": "IRIDIUM 33 DEB",
        "group": "iridium-33-debris",
        "lat": 1.9877496572729172,
        "lon": -167.17849959964587,
        "alt_km": 796.6580032501415,
        "timestamp": "2025-12-15T15:53:20.234337+00:00",
        "meta_object_name": "IRIDIUM 33 DEB",
        "meta_object_id": "1997-051ABN",
        "meta_epoch": "2025-12-13T20:22:29.882208",
        "meta_mean_motion": 14.32399442,
        "meta_eccentricity": 0.0208315,
        "meta_inclination": 86.2839,
        "meta_ra_of_asc_node": 193.4722,
        "meta_arg_of_pericenter": 272.7642,
        "meta_mean_anomaly": 103.0816,
        "meta_ephemeris_type": 0,
        "meta_classification_type": "U",
        "meta_norad_cat_id": 46435,
        "meta_element_set_no": 999,
        "meta_rev_at_epoch": 7932,
        "meta_bstar": 0.009141333,
        "meta_mean_motion_dot": 0.00031559,
        "meta_mean_motion_ddot": 0,
        "tle_line1": "1 46435U 97051ABN 25347.84895697  .00031559  00000+0  91413-2 0  9993",
        "tle_line2": "2 46435  86.2839 193.4722 0208315 272.7642 103.0816 14.32399442 79328"
      },
      "geometry": {
        "type": "Point",
        "coordinates": [
          -167.17849959964587,
          1.9877496572729172
        ]
      }
    },
    {
      "type": "Feature",
      "properties": {
        "norad_id": 46734,
        "name": "IRIDIUM 33 DEB",
        "group": "iridium-33-debris",
        "lat": -68.52911457683352,
        "lon": -7.980502291488567,
        "alt_km": 737.1113768474988,
        "timestamp": "2025-12-15T15:53:20.234346+00:00",
        "meta_object_name": "IRIDIUM 33 DEB",
        "meta_object_id": "1997-051ABR",
        "meta_epoch": "2025-12-14T19:23:13.551072",
        "meta_mean_motion": 14.41903662,
        "meta_eccentricity": 0.00382303,
        "meta_inclination": 86.2641,
        "meta_ra_of_asc_node": 1.9566,
        "meta_arg_of_pericenter": 328.7467,
        "meta_mean_anomaly": 211.2629,
        "meta_ephemeris_type": 0,
        "meta_classification_type": "U",
        "meta_norad_cat_id": 46734,
        "meta_element_set_no": 999,
        "meta_rev_at_epoch": 63040,
        "meta_bstar": 0.00093372704,
        "meta_mean_motion_dot": 3.101e-05,
        "meta_mean_motion_ddot": 0,
        "tle_line1": "1 46734U 97051ABR 25348.80779573  .00003101  00000+0  93373-3 0  9996",
        "tle_line2": "2 46734  86.2641   1.9566 0038230 328.7467 211.2629 14.41903662630405"
      },
      "geometry": {
        "type": "Point",
        "coordinates": [
          -7.980502291488567,
          -68.52911457683352
        ]
      }
    },
    {
      "type": "Feature",
      "properties": {
        "norad_id": 46965,
        "name": "IRIDIUM 33 DEB",
        "group": "iridium-33-debris",
        "lat": -81.35617293780278,
        "lon": -175.6672131036255,
        "alt_km": 693.3691468300813,
        "timestamp": "2025-12-15T15:53:20.234356+00:00",
        "meta_object_name": "IRIDIUM 33 DEB",
        "meta_object_id": "1997-051ABX",
        "meta_epoch": "2025-12-13T10:45:20.165184",
        "meta_mean_motion": 14.60307321,
        "meta_eccentricity": 0.00180716,
        "meta_inclination": 86.336,
        "meta_ra_of_asc_node": 340.3836,
        "meta_arg_of_pericenter": 330.9129,
        "meta_mean_anomaly": 180.178,
        "meta_ephemeris_type": 0,
        "meta_classification_type": "U",
        "meta_norad_cat_id": 46965,
        "meta_element_set_no": 999,
        "meta_rev_at_epoch": 62278,
        "meta_bstar": 0.0013493066,
        "meta_mean_motion_dot": 6.553e-05,
        "meta_mean_motion_ddot": 0,
        "tle_line1": "1 46965U 97051ABX 25347.44815006  .00006553  00000+0  13493-2 0  9991",
        "tle_line2": "2 46965  86.3360 340.3836 0018071 330.9129 180.1780 14.60307321622786"
      },
      "geometry": {
        "type": "Point",
        "coordinates": [
          -175.6672131036255,
          -81.35617293780278
        ]
      }
    },
    {
      "type": "Feature",
      "properties": {
        "norad_id": 46971,
        "name": "IRIDIUM 33 DEB",
        "group": "iridium-33-debris",
        "lat": 19.713653530362528,
        "lon": -26.946131272829145,
        "alt_km": 572.2078926742552,
        "timestamp": "2025-12-15T15:53:20.234365+00:00",
        "meta_object_name": "IRIDIUM 33 DEB",
        "meta_object_id": "1997-051ACD",
        "meta_epoch": "2025-12-14T06:23:56.078592",
        "meta_mean_motion": 14.98150493,
        "meta_eccentricity": 0.00031363,
        "meta_inclination": 86.3369,
        "meta_ra_of_asc_node": 332.3949,
        "meta_arg_of_pericenter": 304.257,
        "meta_mean_anomaly": 114.3941,
        "meta_ephemeris_type": 0,
        "meta_classification_type": "U",
        "meta_norad_cat_id": 46971,
        "meta_element_set_no": 999,
        "meta_rev_at_epoch": 64253,
        "meta_bstar": 0.0030074601,
        "meta_mean_motion_dot": 0.000358,
        "meta_mean_motion_ddot": 0,
        "tle_line1": "1 46971U 97051ACD 25348.26662128  .00035800  00000+0  30075-2 0  9996",
        "tle_line2": "2 46971  86.3369 332.3949 0003136 304.2570 114.3941 14.98150493642538"
      },
      "geometry": {
        "type": "Point",
        "coordinates": [
          -26.946131272829145,
          19.713653530362528
        ]
      }
    },
    {
      "type": "Feature",
      "properties": {
        "norad_id": 46974,
        "name": "IRIDIUM 33 DEB",
        "group": "iridium-33-debris",
        "lat": 9.10887119380861,
        "lon": -76.59527873425435,
        "alt_km": 677.9011285610868,
        "timestamp": "2025-12-15T15:53:20.234375+00:00",
        "meta_object_name": "IRIDIUM 33 DEB",
        "meta_object_id": "1997-051ACG",
        "meta_epoch": "2025-12-14T14:09:41.074272",
        "meta_mean_motion": 14.44439168,
        "meta_eccentricity": 0.00956816,
        "meta_inclination": 86.2983,
        "meta_ra_of_asc_node": 104.4675,
        "meta_arg_of_pericenter": 181.0289,
        "meta_mean_anomaly": 179.0732,
        "meta_ephemeris_type": 0,
        "meta_classification_type": "U",
        "meta_norad_cat_id": 46974,
        "meta_element_set_no": 999,
        "meta_rev_at_epoch": 57535,
        "meta_bstar": 0.0034715296,
        "meta_mean_motion_dot": 0.00012692,
        "meta_mean_motion_ddot": 0,
        "tle_line1": "1 46974U 97051ACG 25348.59005873  .00012692  00000+0  34715-2 0  9992",
        "tle_line2": "2 46974  86.2983 104.4675 0095681 181.0289 179.0732 14.44439168575351"
      },
      "geometry": {
        "type": "Point",
        "coordinates": [
          -76.59527873425435,
          9.10887119380861
        ]
      }
    },
    {
      "type": "Feature",
      "properties": {
        "norad_id": 46979,
        "name": "IRIDIUM 33 DEB",
        "group": "iridium-33-debris",
        "lat": -67.30938593752481,
        "lon": 38.37720692045077,
        "alt_km": 603.0084436209154,
        "timestamp": "2025-12-15T15:53:20.234384+00:00",
        "meta_object_name": "IRIDIUM 33 DEB",
        "meta_object_id": "1997-051ACM",
        "meta_epoch": "2025-12-08T11:38:51.411264",
        "meta_mean_motion": 14.88966671,
        "meta_eccentricity": 0.00280118,
        "meta_inclination": 86.3345,
        "meta_ra_of_asc_node": 50.5282,
        "meta_arg_of_pericenter": 237.8713,
        "meta_mean_anomaly": 121.9794,
        "meta_ephemeris_type": 0,
        "meta_classification_type": "U",
        "meta_norad_cat_id": 46979,
        "meta_element_set_no": 999,
        "meta_rev_at_epoch": 35365,
        "meta_bstar": 0.0048738532,
        "meta_mean_motion_dot": 0.00046401,
        "meta_mean_motion_ddot": 0,
        "tle_line1": "1 46979U 97051ACM 25342.48531726  .00046401  00000+0  48739-2 0  9996",
        "tle_line2": "2 46979  86.3345  50.5282 0028011 237.8713 121.9794 14.88966671353652"
      },
      "geometry": {
        "type": "Point",
        "coordinates": [
          38.37720692045077,
          -67.30938593752481
        ]
      }
    }
  ]
}